1 48646U 21044J   22252.85550492  .00006297  00000-0  44114-3 0  9991
2 48646  53.0546  93.5523 0001230  95.7202 264.3927 15.06406840 71264
1 48646U 21044J   22253.05454395  .00002695  00000-0  19969-3 0  9997
2 48646  53.0547  92.6596 0001315  98.0283 262.0855 15.06406403 71297
1 48646U 21044J   22253.71800586  .00003579  00000-0  25895-3 0  9994
2 48646  53.0547  89.6809 0001290  98.3498 261.7637 15.06414682 72296
1 48646U 21044J   22253.85069744  .00003744  00000-0  26996-3 0  9999
2 48646  53.0547  89.0856 0001270  96.8608 263.2525 15.06416279 71416
1 48646U 21044J   22253.98339438 -.00000310  00000-0 -19052-5 0  9998
2 48646  53.0546  88.4895 0001354  98.8131 261.3011 15.06405252 71437
1 48646U 21044J   22253.98339438 -.00000310  00000-0 -19052-5 0  9998
2 48646  53.0546  88.4895 0001354  98.8131 261.3011 15.06405252 72337
1 48646U 21044J   22254.84589637  .00005060  00000-0  35822-3 0  9998
2 48646  53.0546  84.6171 0001368  96.8599 263.2545 15.06415594 71560
1 48646U 21044J   22255.04493444  .00007439  00000-0  51754-3 0  9995
2 48646  53.0546  83.7233 0001388  96.2204 263.8943 15.06418925 71590
1 48646U 21044J   22255.04493444  .00007439  00000-0  51754-3 0  9995
2 48646  53.0546  83.7233 0001388  96.2204 263.8943 15.06418925 72490
1 48646U 21044J   22255.77474975 -.00001001  00000-0 -48344-4 0  9996
2 48646  53.0544  80.4470 0001155 102.0555 258.0564 15.06400674 72602
1 48646U 21044J   22255.84109645 -.00000627  00000-0 -23222-4 0  9994
2 48646  53.0543  80.1490 0001097 103.4761 256.6351 15.06400691 71717
1 48646U 21044J   22256.23917801  .00001284  00000-0  10508-3 0  9999
2 48646  53.0550  78.3621 0001199  99.7200 260.3924 15.06403408 71771
1 48646U 21044J   22256.96899415  .00000359  00000-0  43010-4 0  9996
2 48646  53.0552  75.0860 0001140 104.7359 255.3756 15.06399769 72783
1 48646U 21044J   22257.49976508 -.00003939  00000-0 -24568-3 0  9999
2 48646  53.0555  72.7033 0001127  98.0716 262.0401 15.06405727 71962
1 48646U 21044J   22257.76516403  .00000360  00000-0  43093-4 0  9991
2 48646  53.0558  71.5122 0001156  94.7420 265.3701 15.06389125 72006
1 48646U 21044J   22257.76516403  .00000360  00000-0  43093-4 0  9991
2 48646  53.0558  71.5122 0001156  94.7420 265.3701 15.06389125 72905
1 48646U 21044J   22258.49496930 -.00003091  00000-0 -18865-3 0  9998
2 48646  53.0601  68.2338 0000827  91.6829 268.4255 15.06408969 72118
1 48646U 21044J   22258.76035896  .00004232  00000-0  30277-3 0  9995
2 48646  53.0557  67.0446 0001292  90.4649 269.6488 15.06408284 73054
1 48646U 21044J   22258.82670573  .00003820  00000-0  27516-3 0  9993
2 48646  53.0546  66.7463 0001144  75.4690 284.6426 15.06408127 72168
1 48646U 21044J   22258.89306137  .00001064  00000-0  90361-4 0  9999
2 48646  53.0577  66.4494 0001536  72.6086 287.5071 15.06392859 73079
1 48646U 21044J   22259.49018031  .00002488  00000-0  18586-3 0  9998
2 48646  53.0562  63.7689 0001405  84.7559 275.3590 15.06397459 72265
1 48646U 21044J   22259.82191798  .00000361  00000-0  43153-4 0  9994
2 48646  53.0556  62.2793 0001264  93.5354 266.5780 15.06390990 72314
1 48646U 21044J   22260.15365107  .00000751  00000-0  69280-4 0  9991
2 48646  53.0561  60.7904 0001343  93.8661 266.2482 15.06395406 72367
1 48646U 21044J   22260.15365107  .00000751  00000-0  69280-4 0  9991
2 48646  53.0561  60.7904 0001343  93.8661 266.2482 15.06395406 73267
1 48646U 21044J   22260.88346190  .00003140  00000-0  22959-3 0  9998
2 48646  53.0559  57.5141 0001280  94.8691 265.2444 15.06405063 72475
1 48646U 21044J   22260.94980669  .00002710  00000-0  20072-3 0  9996
2 48646  53.0561  57.2161 0001307  96.0056 264.1082 15.06408478 73386
1 48646U 21044J   22261.41424268  .00002246  00000-0  16963-3 0  9995
2 48646  53.0564  55.1307 0001255  90.7296 269.3837 15.06393167 72558
1 48646U 21044J   22261.41424268  .00002246  00000-0  16963-3 0  9995
2 48646  53.0564  55.1307 0001255  90.7296 269.3837 15.06393167 73458
1 48646U 21044J   22261.81232113  .00002791  00000-0  20618-3 0  9992
2 48646  53.0563  53.3442 0001347  92.1523 267.9620 15.06399716 72615
1 48646U 21044J   22262.14405175  .00003207  00000-0  23408-3 0  9992
2 48646  53.0563  51.8550 0001340  90.1463 269.9679 15.06406112 73562
1 48646U 21044J   22262.40943702  .00002857  00000-0  21059-3 0  9994
2 48646  53.0563  50.6637 0001269  92.8684 267.2450 15.06407790 72705
1 48646U 21044J   22262.80751929  .00001177  00000-0  97865-4 0  9999
2 48646  53.0562  48.8767 0001320  94.3100 265.8040 15.06404620 72769
1 48646U 21044J   22262.80751929  .00001177  00000-0  97865-4 0  9999
2 48646  53.0562  48.8767 0001320  94.3100 265.8040 15.06404620 73669
1 48646U 21044J   22263.40464272 -.00000489  00000-0 -13907-4 0  9990
2 48646  53.0559  46.1958 0001395  92.7817 267.3332 15.06399864 72851
1 48646U 21044J   22263.40464272 -.00000489  00000-0 -13907-4 0  9990
2 48646  53.0559  46.1958 0001395  92.7817 267.3332 15.06399864 73751
1 48646U 21044J   22263.67003236  .00000439  00000-0  48390-4 0  9995
2 48646  53.0560  45.0046 0001316  94.4846 265.6294 15.06396701 72892
1 48646U 21044J   22264.79794247 -.00000738  00000-0 -30650-4 0  9992
2 48646  53.0573  39.9420 0001010  87.5883 272.5222 15.06385688 73968
1 48646U 21044J   22264.86428985 -.00000626  00000-0 -23148-4 0  9993
2 48646  53.0573  39.6442 0001037  87.1150 272.9958 15.06385427 73074
1 48646U 21044J   22265.46141183  .00000550  00000-0  55804-4 0  9990
2 48646  53.0573  36.9637 0000950  85.7251 274.3847 15.06387702 73160
1 48646U 21044J   22265.79314256  .00001350  00000-0  10952-3 0  9992
2 48646  53.0574  35.4748 0001003  86.1582 273.9521 15.06394236 74110
1 48646U 21044J   22265.85948913  .00001424  00000-0  11450-3 0  9998
2 48646  53.0574  35.1769 0000992  85.6704 274.4398 15.06394899 73220
1 48646U 21044J   22266.52296382  .00001748  00000-0  13626-3 0  9995
2 48646  53.0575  32.1986 0001010  86.3805 273.7300 15.06389819 73323
1 48646U 21044J   22266.72200510  .00001839  00000-0  14236-3 0  9994
2 48646  53.0575  31.3052 0001014  85.8488 274.2617 15.06390911 74258
1 48646U 21044J   22267.51815533  .00002732  00000-0  20219-3 0  9990
2 48646  53.0576  27.7311 0001024  84.9879 275.1227 15.06408439 74376
1 48646U 21044J   22267.84988573  .00002507  00000-0  18705-3 0  9998
2 48646  53.0575  26.2419 0001031  83.9369 276.1737 15.06413360 73521
1 48646U 21044J   22268.51336198  .00001052  00000-0  89530-4 0  9992
2 48646  53.0574  23.2636 0001184  80.7025 279.4097 15.06400227 73625
1 48646U 21044J   22268.51336198  .00001052  00000-0  89530-4 0  9992
2 48646  53.0574  23.2636 0001184  80.7025 279.4097 15.06400227 74525
1 48646U 21044J   22268.71239820  .00001473  00000-0  11776-3 0  9991
2 48646  53.0573  22.3698 0001139  81.9946 278.1172 15.06404581 73657
1 48646U 21044J   22269.04412741 -.00002484  00000-0 -14788-3 0  9994
2 48646  53.0575  20.8802 0001237 128.3394 231.7706 15.06414381 74604
1 48646U 21044J   22269.44222774 -.00002474  00000-0 -14729-3 0  9997
2 48646  53.0575  19.0936 0001371  85.7479 274.3666 15.06391031 73761
1 48646U 21044J   22269.70761698 -.00002838  00000-0 -17178-3 0  9994
2 48646  53.0576  17.9028 0001388  81.6548 278.4599 15.06390821 74702
1 48646U 21044J   22270.43742859 -.00000162  00000-0  80377-5 0  9994
2 48646  53.0583  14.6262 0001389  94.2603 265.8545 15.06393201 74815
1 48646U 21044J   22270.57011914  .00000739  00000-0  68518-4 0  9991
2 48646  53.0577  14.0316 0001451  84.5598 275.5556 15.06397824 73934
1 48646U 21044J   22270.70280855  .00001685  00000-0  13196-3 0  9990
2 48646  53.0579  13.4364 0001493  84.2942 275.8217 15.06403311 73956
1 48646U 21044J   22270.70280855  .00001685  00000-0  13196-3 0  9990
2 48646  53.0579  13.4364 0001493  84.2942 275.8217 15.06403311 74856
1 48646U 21044J   22271.56533023  .00001883  00000-0  14531-3 0  9997
2 48646  53.0580   9.5631 0001398  82.8816 277.2332 15.06386267 74088
1 48646U 21044J   22271.56533023  .00001883  00000-0  14531-3 0  9997
2 48646  53.0580   9.5631 0001398  82.8816 277.2332 15.06386267 74987
1 48646U 21044J   22271.69802585  .00001393  00000-0  11241-3 0  9994
2 48646  53.0575   8.9673 0001347  78.2761 281.8379 15.06385019 74102
1 48646U 21044J   22272.42782873 -.00000499  00000-0 -14622-4 0  9998
2 48646  53.0574   5.6916 0001361  79.4544 280.6598 15.06414900 75117
1 48646U 21044J   22272.56053347 -.00000601  00000-0 -21485-4 0  9990
2 48646  53.0575   5.0965 0001438  76.9014 283.2135 15.06396741 74235
1 48646U 21044J   22272.82591666  .00000107  00000-0  26077-4 0  9991
2 48646  53.0576   3.9052 0001450  77.2096 282.9055 15.06401466 75170
1 48646U 21044J   22273.48937819  .00003527  00000-0  25552-3 0  9993
2 48646  53.0575   0.9267 0001351  75.7098 284.4041 15.06406549 74379
1 48646U 21044J   22273.82111197  .00004947  00000-0  35065-3 0  9991
2 48646  53.0567 359.4377 0001464  74.4000 285.7151 15.06412443 74420
1 48646U 21044J   22274.21918949  .00003795  00000-0  27343-3 0  9995
2 48646  53.0562 357.6513 0001486  75.3395 284.7758 15.06412885 75386
1 48646U 21044J   22274.55092195  .00002968  00000-0  21799-3 0  9998
2 48646  53.0562 356.1617 0001388  77.1644 282.9500 15.06410913 74534
1 48646U 21044J   22274.74995977  .00003559  00000-0  25757-3 0  9994
2 48646  53.0563 355.2681 0001447  74.8860 285.2289 15.06414974 74560
1 48646U 21044J   22275.21439042 -.00000624  00000-0 -23004-4 0  9999
2 48646  53.0564 353.1834 0001394  76.0737 284.0407 15.06401571 75532
1 48646U 21044J   22275.41343633 -.00002521  00000-0 -15044-3 0  9993
2 48646  53.0567 352.2900 0001431  75.2229 284.8918 15.06393467 75560
1 48646U 21044J   22275.47978771 -.00004530  00000-0 -28555-3 0  9999
2 48646  53.0568 351.9921 0001391  75.0139 285.1004 15.06384898 74672
1 48646U 21044J   22275.67883853 -.00000146  00000-0  90971-5 0  9998
2 48646  53.0574 351.0986 0001425  74.1080 286.0066 15.06380210 74700
1 48646U 21044J   22275.67883853 -.00000146  00000-0  90971-5 0  9998
2 48646  53.0574 351.0986 0001425  74.1080 286.0066 15.06380210 75600
